{
  "type": "FeatureCollection",
  "features": [
    {
      "type": "Feature",
      "properties": {
        "norad_id": 38067,
        "name": "COSMOS 2251 DEB",
        "group": "cosmos-2251-debris",
        "lat": 52.42538798821957,
        "lon": -56.84773061670343,
        "alt_km": 637.1528732683582,
        "timestamp": "2025-12-09T04:51:47.889602+00:00",
        "meta_object_name": "COSMOS 2251 DEB",
        "meta_object_id": "1993-036BRZ",
        "meta_epoch": "2025-11-29T04:46:36.876288",
        "meta_mean_motion": 14.61044936,
        "meta_eccentricity": 0.00691529,
        "meta_inclination": 74.017,
        "meta_ra_of_asc_node": 300.4181,
        "meta_arg_of_pericenter": 91.9303,
        "meta_mean_anomaly": 288.2542,
        "meta_ephemeris_type": 0,
        "meta_classification_type": "U",
        "meta_norad_cat_id": 38067,
        "meta_element_set_no": 999,
        "meta_rev_at_epoch": 62358,
        "meta_bstar": 0.00037425936,
        "meta_mean_motion_dot": 1.87e-05,
        "meta_mean_motion_ddot": 0,
        "tle_line1": "1 38067U 93036BRZ 25333.19903792  .00001870  00000+0  37426-3 0  9991",
        "tle_line2": "2 38067  74.0170 300.4181 0069152  91.9303 288.2542 14.61044936623583"
      },
      "geometry": {
        "type": "Point",
        "coordinates": [
          -56.84773061670343,
          52.42538798821957
        ]
      }
    },
    {
      "type": "Feature",
      "properties": {
        "norad_id": 38068,
        "name": "COSMOS 2251 DEB",
        "group": "cosmos-2251-debris",
        "lat": 38.25467011452005,
        "lon": 121.69084008254941,
        "alt_km": 770.0966064720988,
        "timestamp": "2025-12-09T04:51:47.889613+00:00",
        "meta_object_name": "COSMOS 2251 DEB",
        "meta_object_id": "1993-036BSA",
        "meta_epoch": "2025-11-26T00:12:22.263264",
        "meta_mean_motion": 14.35960004,
        "meta_eccentricity": 0.00240903,
        "meta_inclination": 74.0219,
        "meta_ra_of_asc_node": 338.9788,
        "meta_arg_of_pericenter": 72.1007,
        "meta_mean_anomaly": 288.2769,
        "meta_ephemeris_type": 0,
        "meta_classification_type": "U",
        "meta_norad_cat_id": 38068,
        "meta_element_set_no": 999,
        "meta_rev_at_epoch": 66406,
        "meta_bstar": 0.00028750999,
        "meta_mean_motion_dot": 8.11e-06,
        "meta_mean_motion_ddot": 0,
        "tle_line1": "1 38068U 93036BSA 25330.00859101  .00000811  00000+0  28751-3 0  9998",
        "tle_line2": "2 38068  74.0219 338.9788 0024090  72.1007 288.2769 14.35960004664064"
      },
      "geometry": {
        "type": "Point",
        "coordinates": [
          121.69084008254941,
          38.25467011452005
        ]
      }
    },
    {
      "type": "Feature",
      "properties": {
        "norad_id": 38197,
        "name": "COSMOS 2251 DEB",
        "group": "cosmos-2251-debris",
        "lat": 7.42212943556101,
        "lon": 6.143909793133204,
        "alt_km": 702.0269904760389,
        "timestamp": "2025-12-09T04:51:47.889623+00:00",
        "meta_object_name": "COSMOS 2251 DEB",
        "meta_object_id": "1993-036BSM",
        "meta_epoch": "2025-12-08T19:03:08.419680",
        "meta_mean_motion": 14.73659772,
        "meta_eccentricity": 0.0127211,
        "meta_inclination": 73.9375,
        "meta_ra_of_asc_node": 4.7948,
        "meta_arg_of_pericenter": 243.2589,
        "meta_mean_anomaly": 115.552,
        "meta_ephemeris_type": 0,
        "meta_classification_type": "U",
        "meta_norad_cat_id": 38197,
        "meta_element_set_no": 999,
        "meta_rev_at_epoch": 85697,
        "meta_bstar": 0.0065047,
        "meta_mean_motion_dot": 0.00048579,
        "meta_mean_motion_ddot": 0,
        "tle_line1": "1 38197U 93036BSM 25342.79384745  .00048579  00000+0  65047-2 0  9998",
        "tle_line2": "2 38197  73.9375   4.7948 0127211 243.2589 115.5520 14.73659772856978"
      },
      "geometry": {
        "type": "Point",
        "coordinates": [
          6.143909793133204,
          7.42212943556101
        ]
      }
    },
    {
      "type": "Feature",
      "properties": {
        "norad_id": 38199,
        "name": "COSMOS 2251 DEB",
        "group": "cosmos-2251-debris",
        "lat": 66.03917493105546,
        "lon": -152.3524624898615,
        "alt_km": 1108.683373015093,
        "timestamp": "2025-12-09T04:51:47.889633+00:00",
        "meta_object_name": "COSMOS 2251 DEB",
        "meta_object_id": "1993-036BSP",
        "meta_epoch": "2025-12-07T13:39:10.297152",
        "meta_mean_motion": 13.64784951,
        "meta_eccentricity": 0.03694158,
        "meta_inclination": 73.9558,
        "meta_ra_of_asc_node": 70.6839,
        "meta_arg_of_pericenter": 358.2142,
        "meta_mean_anomaly": 1.7624,
        "meta_ephemeris_type": 0,
        "meta_classification_type": "U",
        "meta_norad_cat_id": 38199,
        "meta_element_set_no": 999,
        "meta_rev_at_epoch": 60951,
        "meta_bstar": 0.00073631881,
        "meta_mean_motion_dot": 9.22e-06,
        "meta_mean_motion_ddot": 0,
        "tle_line1": "1 38199U 93036BSP 25341.56886918  .00000922  00000+0  73632-3 0  9993",
        "tle_line2": "2 38199  73.9558  70.6839 0369415 358.2142   1.7624 13.64784951609514"
      },
      "geometry": {
        "type": "Point",
        "coordinates": [
          -152.3524624898615,
          66.03917493105546
        ]
      }
    },
    {
      "type": "Feature",
      "properties": {
        "norad_id": 38208,
        "name": "COSMOS 2251 DEB",
        "group": "cosmos-2251-debris",
        "lat": -9.64638821978049,
        "lon": -91.27203988483497,
        "alt_km": 619.7391186437435,
        "timestamp": "2025-12-09T04:51:47.889643+00:00",
        "meta_object_name": "COSMOS 2251 DEB",
        "meta_object_id": "1993-036BSY",
        "meta_epoch": "2025-12-08T01:17:29.951232",
        "meta_mean_motion": 14.83590677,
        "meta_eccentricity": 0.00029301,
        "meta_inclination": 74.0062,
        "meta_ra_of_asc_node": 88.2125,
        "meta_arg_of_pericenter": 171.0279,
        "meta_mean_anomaly": 5.5691,
        "meta_ephemeris_type": 0,
        "meta_classification_type": "U",
        "meta_norad_cat_id": 38208,
        "meta_element_set_no": 999,
        "meta_rev_at_epoch": 71089,
        "meta_bstar": 0.0032427711,
        "meta_mean_motion_dot": 0.00026811,
        "meta_mean_motion_ddot": 0,
        "tle_line1": "1 38208U 93036BSY 25342.05381888  .00026811  00000+0  32428-2 0  9997",
        "tle_line2": "2 38208  74.0062  88.2125 0002930 171.0279   5.5691 14.83590677710890"
      },
      "geometry": {
        "type": "Point",
        "coordinates": [
          -91.27203988483497,
          -9.64638821978049
        ]
      }
    },
    {
      "type": "Feature",
      "properties": {
        "norad_id": 38212,
        "name": "COSMOS 2251 DEB",
        "group": "cosmos-2251-debris",
        "lat": -37.45882793442877,
        "lon": -83.80841892068389,
        "alt_km": 617.4840891776039,
        "timestamp": "2025-12-09T04:51:47.889653+00:00",
        "meta_object_name": "COSMOS 2251 DEB",
        "meta_object_id": "1993-036BTC",
        "meta_epoch": "2025-12-08T13:15:26.464032",
        "meta_mean_motion": 14.77639869,
        "meta_eccentricity": 0.0092747,
        "meta_inclination": 74.0522,
        "meta_ra_of_asc_node": 84.8103,
        "meta_arg_of_pericenter": 153.0073,
        "meta_mean_anomaly": 207.5971,
        "meta_ephemeris_type": 0,
        "meta_classification_type": "U",
        "meta_norad_cat_id": 38212,
        "meta_element_set_no": 999,
        "meta_rev_at_epoch": 81248,
        "meta_bstar": 0.00080388,
        "meta_mean_motion_dot": 6.149e-05,
        "meta_mean_motion_ddot": 0,
        "tle_line1": "1 38212U 93036BTC 25342.55238963  .00006149  00000+0  80388-3 0  9993",
        "tle_line2": "2 38212  74.0522  84.8103 0092747 153.0073 207.5971 14.77639869812484"
      },
      "geometry": {
        "type": "Point",
        "coordinates": [
          -83.80841892068389,
          -37.45882793442877
        ]
      }
    },
    {
      "type": "Feature",
      "properties": {
        "norad_id": 38220,
        "name": "COSMOS 2251 DEB",
        "group": "cosmos-2251-debris",
        "lat": 4.5760023004231805,
        "lon": -105.90110062247552,
        "alt_km": 593.0361213710412,
        "timestamp": "2025-12-09T04:51:47.889664+00:00",
        "meta_object_name": "COSMOS 2251 DEB",
        "meta_object_id": "1993-036BTL",
        "meta_epoch": "2025-12-07T23:07:29.587296",
        "meta_mean_motion": 14.92459164,
        "meta_eccentricity": 0.00038945,
        "meta_inclination": 74.0157,
        "meta_ra_of_asc_node": 77.9045,
        "meta_arg_of_pericenter": 65.821,
        "meta_mean_anomaly": 294.338,
        "meta_ephemeris_type": 0,
        "meta_classification_type": "U",
        "meta_norad_cat_id": 38220,
        "meta_element_set_no": 999,
        "meta_rev_at_epoch": 71299,
        "meta_bstar": 0.0040597904,
        "meta_mean_motion_dot": 0.00041864,
        "meta_mean_motion_ddot": 0,
        "tle_line1": "1 38220U 93036BTL 25341.96353689  .00041864  00000+0  40598-2 0  9990",
        "tle_line2": "2 38220  74.0157  77.9045 0003894  65.8210 294.3380 14.92459164712991"
      },
      "geometry": {
        "type": "Point",
        "coordinates": [
          -105.90110062247552,
          4.5760023004231805
        ]
      }
    }
  ]
}